start=new Date('2023-05-31T00:00:00.000Z').valueOf();
sats=[{"ARG_OF_PERICENTER":"80.4764","REV_AT_EPOCH":"12714","EPHEMERIS_TYPE":"0","APOAPSIS":"547.248","INCLINATION":"53.0533","OBJECT_TYPE":"PAYLOAD","MEAN_MOTION":"15.06421777","TIME_SYSTEM":"UTC","MEAN_MOTION_DOT":"0.00016103","CENTER_NAME":"EARTH","MEAN_MOTION_DDOT":"0.0000000000000","OBJECT_ID":"2021-012A","FILE":"3921192","COUNTRY_CODE":"US","NORAD_CAT_ID":"47620","OBJECT_NAME":"STARLINK-1528","TLE_LINE1":"1 47620U 21012A   23150.67863817  .00016103  00000-0  10968-2 0  9999","EPOCH":"2023-05-30T16:17:14.337888","RA_OF_ASC_NODE":"303.6909","TLE_LINE2":"2 47620  53.0533 303.6909 0000146  80.4764 279.6241 15.06421777127146","GP_ID":"232852705","DECAY_DATE":null,"PERIOD":"95.591","REF_FRAME":"TEME","PERIAPSIS":"547.046","MEAN_ANOMALY":"279.6241","SEMIMAJOR_AXIS":"6925.282","ELEMENT_SET_NO":"999","BSTAR":"0.00109680000000","SITE":"AFETR","CLASSIFICATION_TYPE":"U","MEAN_ELEMENT_THEORY":"SGP4","ECCENTRICITY":"0.00001460","LAUNCH_DATE":"2021-02-16","RCS_SIZE":"LARGE"},{"ELEMENT_SET_NO":"999","PERIAPSIS":"546.718","REF_FRAME":"TEME","SEMIMAJOR_AXIS":"6925.263","MEAN_ANOMALY":"306.5932","DECAY_DATE":null,"PERIOD":"95.590","TLE_LINE2":"2 47621  53.0529 303.7268 0000593  53.5111 306.5932 15.06427815127151","RA_OF_ASC_NODE":"303.7268","GP_ID":"232851954","RCS_SIZE":"LARGE","LAUNCH_DATE":"2021-02-16","ECCENTRICITY":"0.00005930","MEAN_ELEMENT_THEORY":"SGP4","BSTAR":"0.00126390000000","CLASSIFICATION_TYPE":"U","SITE":"AFETR","TIME_SYSTEM":"UTC","INCLINATION":"53.0529","MEAN_MOTION":"15.06427815","OBJECT_TYPE":"PAYLOAD","APOAPSIS":"547.539","ARG_OF_PERICENTER":"53.5111","REV_AT_EPOCH":"12715","EPHEMERIS_TYPE":"0","OBJECT_NAME":"STARLINK-1609","TLE_LINE1":"1 47621U 21012B   23150.67126558  .00018609  00000-0  12639-2 0  9994","EPOCH":"2023-05-30T16:06:37.346112","NORAD_CAT_ID":"47621","OBJECT_ID":"2021-012B","MEAN_MOTION_DDOT":"0.0000000000000","COUNTRY_CODE":"US","FILE":"3921192","MEAN_MOTION_DOT":"0.00018609","CENTER_NAME":"EARTH"},{"MEAN_ANOMALY":"281.4925","SEMIMAJOR_AXIS":"6925.229","PERIAPSIS":"546.423","REF_FRAME":"TEME","ELEMENT_SET_NO":"999","GP_ID":"232852204","RA_OF_ASC_NODE":"303.7334","TLE_LINE2":"2 47622  53.0531 303.7334 0000968  78.6173 281.4925 15.06439130127146","DECAY_DATE":null,"PERIOD":"95.590","ECCENTRICITY":"0.00009680","LAUNCH_DATE":"2021-02-16","RCS_SIZE":"LARGE","SITE":"AFETR","CLASSIFICATION_TYPE":"U","BSTAR":"0.00105650000000","MEAN_ELEMENT_THEORY":"SGP4","OBJECT_TYPE":"PAYLOAD","MEAN_MOTION":"15.06439130","INCLINATION":"53.0531","TIME_SYSTEM":"UTC","EPHEMERIS_TYPE":"0","REV_AT_EPOCH":"12714","ARG_OF_PERICENTER":"78.6173","APOAPSIS":"547.764","NORAD_CAT_ID":"47622","EPOCH":"2023-05-30T15:59:55.969728","TLE_LINE1":"1 47622U 21012C   23150.66662002  .00015507  00000-0  10565-2 0  9993","OBJECT_NAME":"STARLINK-1645","CENTER_NAME":"EARTH","MEAN_MOTION_DOT":"0.00015507","FILE":"3921192","COUNTRY_CODE":"US","MEAN_MOTION_DDOT":"0.0000000000000","OBJECT_ID":"2021-012C"},{"APOAPSIS":"547.934","ARG_OF_PERICENTER":"67.7223","REV_AT_EPOCH":"12805","EPHEMERIS_TYPE":"0","TIME_SYSTEM":"UTC","INCLINATION":"53.0535","OBJECT_TYPE":"PAYLOAD","MEAN_MOTION":"15.06404095","MEAN_MOTION_DDOT":"0.0000000000000","OBJECT_ID":"2021-012D","FILE":"3921192","COUNTRY_CODE":"US","MEAN_MOTION_DOT":"0.00012380","CENTER_NAME":"EARTH","TLE_LINE1":"1 47623U 21012D   23150.61276621  .00012380  00000-0  84845-3 0  9996","OBJECT_NAME":"STARLINK-1655","EPOCH":"2023-05-30T14:42:23.000544","NORAD_CAT_ID":"47623","DECAY_DATE":null,"PERIOD":"95.592","RA_OF_ASC_NODE":"238.9841","TLE_LINE2":"2 47623  53.0535 238.9841 0001059  67.7223 292.3878 15.06404095128051","GP_ID":"232852455","ELEMENT_SET_NO":"999","REF_FRAME":"TEME","PERIAPSIS":"546.468","MEAN_ANOMALY":"292.3878","SEMIMAJOR_AXIS":"6925.336","MEAN_ELEMENT_THEORY":"SGP4","BSTAR":"0.00084845000000","SITE":"AFETR","CLASSIFICATION_TYPE":"U","LAUNCH_DATE":"2021-02-16","RCS_SIZE":"LARGE","ECCENTRICITY":"0.00010590"},{"PERIOD":"95.592","DECAY_DATE":null,"TLE_LINE2":"2 47624  53.0545 283.7150 0000517  66.1199 293.9844 15.06405342127445","RA_OF_ASC_NODE":"283.7150","GP_ID":"232853206","ELEMENT_SET_NO":"999","REF_FRAME":"TEME","PERIAPSIS":"546.839","SEMIMAJOR_AXIS":"6925.332","MEAN_ANOMALY":"293.9844","MEAN_ELEMENT_THEORY":"SGP4","BSTAR":"0.00063716000000","CLASSIFICATION_TYPE":"U","SITE":"AFETR","RCS_SIZE":"LARGE","LAUNCH_DATE":"2021-02-16","ECCENTRICITY":"0.00005170","APOAPSIS":"547.555","ARG_OF_PERICENTER":"66.1199","REV_AT_EPOCH":"12744","EPHEMERIS_TYPE":"0","TIME_SYSTEM":"UTC","INCLINATION":"53.0545","MEAN_MOTION":"15.06405342","OBJECT_TYPE":"PAYLOAD","OBJECT_ID":"2021-012E","MEAN_MOTION_DDOT":"0.0000000000000","COUNTRY_CODE":"US","FILE":"3921192","MEAN_MOTION_DOT":"0.00009223","CENTER_NAME":"EARTH","OBJECT_NAME":"STARLINK-1669","TLE_LINE1":"1 47624U 21012E   23150.67312013  .00009223  00000-0  63716-3 0  9995","EPOCH":"2023-05-30T16:09:17.579232","NORAD_CAT_ID":"47624"},{"REV_AT_EPOCH":"12714","EPHEMERIS_TYPE":"0","ARG_OF_PERICENTER":"70.6644","APOAPSIS":"547.622","OBJECT_TYPE":"PAYLOAD","MEAN_MOTION":"15.06419816","INCLINATION":"53.0526","TIME_SYSTEM":"UTC","CENTER_NAME":"EARTH","MEAN_MOTION_DOT":"0.00014246","COUNTRY_CODE":"US","FILE":"3921192","OBJECT_ID":"2021-012F","MEAN_MOTION_DDOT":"0.0000000000000","NORAD_CAT_ID":"47625","EPOCH":"2023-05-30T16:10:34.184928","TLE_LINE1":"1 47625U 21012F   23150.67400677  .00014246  00000-0  97279-3 0  9992","OBJECT_NAME":"STARLINK-1704","GP_ID":"232851454","TLE_LINE2":"2 47625  53.0526 303.7041 0000677  70.6644 289.4418 15.06419816127144","RA_OF_ASC_NODE":"303.7041","DECAY_DATE":null,"PERIOD":"95.591","SEMIMAJOR_AXIS":"6925.288","MEAN_ANOMALY":"289.4418","REF_FRAME":"TEME","PERIAPSIS":"546.684","ELEMENT_SET_NO":"999","CLASSIFICATION_TYPE":"U","SITE":"AFETR","BSTAR":"0.00097279000000","MEAN_ELEMENT_THEORY":"SGP4","ECCENTRICITY":"0.00006770","RCS_SIZE":"LARGE","LAUNCH_DATE":"2021-02-16"},{"TIME_SYSTEM":"UTC","MEAN_MOTION":"15.06423185","OBJECT_TYPE":"PAYLOAD","INCLINATION":"53.0535","APOAPSIS":"547.820","EPHEMERIS_TYPE":"0","REV_AT_EPOCH":"12714","ARG_OF_PERICENTER":"108.0982","EPOCH":"2023-05-30T15:50:41.889984","OBJECT_NAME":"STARLINK-1761","TLE_LINE1":"1 47626U 21012G   23150.66020706  .00016479  00000-0  11219-2 0  9992","NORAD_CAT_ID":"47626","COUNTRY_CODE":"US","FILE":"3921192","OBJECT_ID":"2021-012G","MEAN_MOTION_DDOT":"0.0000000000000","CENTER_NAME":"EARTH","MEAN_MOTION_DOT":"0.00016479","ELEMENT_SET_NO":"999","SEMIMAJOR_AXIS":"6925.278","MEAN_ANOMALY":"252.0114","REF_FRAME":"TEME","PERIAPSIS":"546.465","DECAY_DATE":null,"PERIOD":"95.591","GP_ID":"232851704","TLE_LINE2":"2 47626  53.0535 303.7712 0000979 108.0982 252.0114 15.06423185127149","RA_OF_ASC_NODE":"303.7712","RCS_SIZE":"LARGE","LAUNCH_DATE":"2021-02-16","ECCENTRICITY":"0.00009790","MEAN_ELEMENT_THEORY":"SGP4","CLASSIFICATION_TYPE":"U","SITE":"AFETR","BSTAR":"0.00112190000000"},{"MEAN_ELEMENT_THEORY":"SGP4","BSTAR":"0.00027720000000","CLASSIFICATION_TYPE":"U","SITE":"AFETR","RCS_SIZE":"LARGE","LAUNCH_DATE":"2021-02-16","ECCENTRICITY":"0.00008600","DECAY_DATE":null,"PERIOD":"95.593","TLE_LINE2":"2 47627  53.0531 207.8304 0000860  77.1712 282.9373 15.06392439128487","RA_OF_ASC_NODE":"207.8304","GP_ID":"232852956","ELEMENT_SET_NO":"999","REF_FRAME":"TEME","PERIAPSIS":"546.641","SEMIMAJOR_AXIS":"6925.372","MEAN_ANOMALY":"282.9373","OBJECT_ID":"2021-012H","MEAN_MOTION_DDOT":"0.0000000000000","COUNTRY_CODE":"US","FILE":"3921192","MEAN_MOTION_DOT":"0.00003849","CENTER_NAME":"EARTH","TLE_LINE1":"1 47627U 21012H   23150.86984644  .00003849  00000-0  27720-3 0  9997","OBJECT_NAME":"STARLINK-1972","EPOCH":"2023-05-30T20:52:34.732416","NORAD_CAT_ID":"47627","APOAPSIS":"547.832","ARG_OF_PERICENTER":"77.1712","REV_AT_EPOCH":"12848","EPHEMERIS_TYPE":"0","TIME_SYSTEM":"UTC","INCLINATION":"53.0531","OBJECT_TYPE":"PAYLOAD","MEAN_MOTION":"15.06392439"},{"SEMIMAJOR_AXIS":"6925.267","MEAN_ANOMALY":"294.5360","PERIAPSIS":"546.542","REF_FRAME":"TEME","ELEMENT_SET_NO":"999","GP_ID":"232852706","TLE_LINE2":"2 47628  53.0546 303.0057 0000852  65.5718 294.5360 15.06426720127177","RA_OF_ASC_NODE":"303.0057","PERIOD":"95.590","DECAY_DATE":null,"ECCENTRICITY":"0.00008520","RCS_SIZE":"LARGE","LAUNCH_DATE":"2021-02-16","CLASSIFICATION_TYPE":"U","SITE":"AFETR","BSTAR":"0.00119020000000","MEAN_ELEMENT_THEORY":"SGP4","OBJECT_TYPE":"PAYLOAD","MEAN_MOTION":"15.06426720","INCLINATION":"53.0546","TIME_SYSTEM":"UTC","REV_AT_EPOCH":"12717","EPHEMERIS_TYPE":"0","ARG_OF_PERICENTER":"65.5718","APOAPSIS":"547.722","NORAD_CAT_ID":"47628","EPOCH":"2023-05-30T19:53:29.869152","OBJECT_NAME":"STARLINK-1973","TLE_LINE1":"1 47628U 21012J   23150.82881793  .00017504  00000-0  11902-2 0  9992","CENTER_NAME":"EARTH","MEAN_MOTION_DOT":"0.00017504","COUNTRY_CODE":"US","FILE":"3921192","OBJECT_ID":"2021-012J","MEAN_MOTION_DDOT":"0.0000000000000"},{"TIME_SYSTEM":"UTC","INCLINATION":"53.0535","MEAN_MOTION":"15.06393367","OBJECT_TYPE":"PAYLOAD","APOAPSIS":"548.002","ARG_OF_PERICENTER":"87.2190","REV_AT_EPOCH":"12883","EPHEMERIS_TYPE":"0","TLE_LINE1":"1 47629U 21012K   23150.81133602  .00000265  00000-0  36703-4 0  9995","OBJECT_NAME":"STARLINK-1974","EPOCH":"2023-05-30T19:28:19.432128","NORAD_CAT_ID":"47629","MEAN_MOTION_DDOT":"0.0000000000000","OBJECT_ID":"2021-012K","FILE":"3921192","COUNTRY_CODE":"US","MEAN_MOTION_DOT":"0.00000265","CENTER_NAME":"EARTH","ELEMENT_SET_NO":"999","PERIAPSIS":"546.466","REF_FRAME":"TEME","MEAN_ANOMALY":"272.8926","SEMIMAJOR_AXIS":"6925.369","DECAY_DATE":null,"PERIOD":"95.593","RA_OF_ASC_NODE":"183.0902","TLE_LINE2":"2 47629  53.0535 183.0902 0001109  87.2190 272.8926 15.06393367128833","GP_ID":"232851955","LAUNCH_DATE":"2021-02-16","RCS_SIZE":"LARGE","ECCENTRICITY":"0.00011090","MEAN_ELEMENT_THEORY":"SGP4","BSTAR":"0.00003670300000","SITE":"AFETR","CLASSIFICATION_TYPE":"U"}];
